     2.11           N: GPS NAV DATA                         RINEX VERSION / TYPE
teqc  2018Dec12     gpsops              20220520 01:04:01UTCPGM / RUN BY / DATE
Linux 2.6.32-573.12.1.x86_64|x86_64|gcc -static|Linux 64|=+ COMMENT
CHPI                                    MARKER NAME         COMMENT
41609M003                               MARKER NUMBER       COMMENT
4164613.9484 -4162456.9866 -2445028.7316                    COMMENT
This data is provided as a public service by NASA/JPL.      COMMENT
No warranty is expressed or implied regarding suitability   COMMENT
for use.  For further information, contact:                 COMMENT
ggnops at jpl dot nasa dot gov                              COMMENT
                                                            END OF HEADER
 4 22  5 19 20 14 40.0-1.656766980886D-04 3.637978807092D-12 0.000000000000D+00
    1.080000000000D+02-1.612500000000D+01 4.528760069606D-09-2.190788943656D+00
   -8.568167686462D-07 1.824837876484D-03 8.221715688705D-06 5.153609340668D+03
    4.184800000000D+05 9.313225746155D-09-1.424427828314D+00 1.490116119385D-08
    9.609070873972D-01 2.214062500000D+02-2.963211921922D+00-7.809611015932D-09
    4.125171829965D-10 1.000000000000D+00 2.210000000000D+03 0.000000000000D+00
    2.000000000000D+00 0.000000000000D+00-4.656612873077D-09 8.760000000000D+02
    4.113180000000D+05 4.000000000000D+00
13 22  5 19 20  0  0.0 3.145323134959D-04 6.821210263297D-12 0.000000000000D+00
    5.300000000000D+01 2.218750000000D+00 4.348038256103D-09-2.298346975971D+00
    1.676380634308D-07 5.909812636673D-03 7.970258593559D-06 5.153667562485D+03
    4.176000000000D+05-7.078051567078D-08-1.323741651793D+00-8.381903171539D-08
    9.682860125419D-01 2.308125000000D+02 9.198579469529D-01-7.659604767569D-09
    3.978737158944D-10 1.000000000000D+00 2.210000000000D+03 0.000000000000D+00
    2.000000000000D+00 0.000000000000D+00-1.164153218269D-08 5.300000000000D+01
    4.129320000000D+05 4.000000000000D+00
19 22  5 19 20  0  0.0 1.594759523869D-04 5.002220859751D-12 0.000000000000D+00
    3.000000000000D+00 8.587500000000D+01 4.323394372444D-09 4.827064419294D-01
    4.481524229050D-06 9.243012173101D-03 3.751367330551D-06 5.153702693939D+03
    4.176000000000D+05-9.499490261078D-08 1.789646993066D+00-8.195638656616D-08
    9.774504277394D-01 3.176562500000D+02 2.062175129963D+00-8.253915237272D-09
    1.971510692762D-10 1.000000000000D+00 2.210000000000D+03 0.000000000000D+00
    2.000000000000D+00 0.000000000000D+00-1.583248376846D-08 3.000000000000D+00
    4.137720000000D+05 4.000000000000D+00
 7 22  5 19 19 59 44.0 3.221645019948D-04 1.136868377216D-13 0.000000000000D+00
    2.800000000000D+01-2.437500000000D+00 4.983421865238D-09 1.556614838433D+00
   -1.825392246246D-07 1.609394152183D-02 7.182359695435D-06 5.153656147003D+03
    4.175840000000D+05-3.594905138016D-07-4.061729580483D-01 7.450580596924D-09
    9.509131625387D-01 2.404062500000D+02-2.268253808961D+00-8.243914820714D-09
   -3.175132257003D-10 1.000000000000D+00 2.210000000000D+03 0.000000000000D+00
    2.000000000000D+00 0.000000000000D+00-1.117587089539D-08 2.800000000000D+01
    4.140660000000D+05 4.000000000000D+00
28 22  5 19 22  0  0.0 3.549335524440D-04-6.934897101019D-12 0.000000000000D+00
    3.800000000000D+01 7.450000000000D+01 4.124457514496D-09-3.390160505221D-01
    3.810971975327D-06 1.658196863718D-02 1.026131212711D-05 5.153683765411D+03
    4.248000000000D+05-3.874301910400D-07 7.285004677572D-01-2.793967723846D-08
    9.686090190021D-01 1.909062500000D+02-1.277819595595D+00-7.946045270394D-09
   -1.757216052245D-10 1.000000000000D+00 2.210000000000D+03 0.000000000000D+00
    2.000000000000D+00 6.300000000000D+01-1.117587089539D-08 3.800000000000D+01
    4.176180000000D+05 4.000000000000D+00
14 22  5 19 22  0  0.0-1.089894212782D-04-1.591615728103D-12 0.000000000000D+00
    1.490000000000D+02 7.234375000000D+01 4.377682348041D-09 1.972732726751D+00
    3.721565008163D-06 1.868394436315D-03 1.031532883644D-05 5.153664051056D+03
    4.248000000000D+05-8.381903171539D-08 6.737416417351D-01-2.048909664154D-08
    9.529703969393D-01 1.736562500000D+02 3.108460046055D+00-7.843541000680D-09
   -3.514432104489D-10 1.000000000000D+00 2.210000000000D+03 0.000000000000D+00
    2.000000000000D+00 0.000000000000D+00-7.916241884232D-09 4.050000000000D+02
    4.176180000000D+05 4.000000000000D+00
30 22  5 19 22  0  0.0-5.285087972879D-04-1.364242052659D-12 0.000000000000D+00
    5.100000000000D+01 3.750000000000D-01 5.263433528848D-09 2.594639523642D+00
   -7.450580596924D-08 5.825085914694D-03 6.856396794319D-06 5.153759847641D+03
    4.248000000000D+05-7.078051567078D-08-3.944942328625D-01-8.195638656616D-08
    9.360690395814D-01 2.347187500000D+02-2.692658569363D+00-8.198555788471D-09
   -2.750114553310D-10 1.000000000000D+00 2.210000000000D+03 0.000000000000D+00
    2.000000000000D+00 0.000000000000D+00 3.725290298462D-09 5.100000000000D+01
    4.176180000000D+05 4.000000000000D+00
17 22  5 19 22  0  0.0 6.146589294076D-04 4.661160346586D-12 0.000000000000D+00
    8.300000000000D+01 1.039375000000D+02 4.298393331050D-09-8.403915068909D-01
    5.522742867470D-06 1.350694475695D-02 4.675239324570D-06 5.153554889679D+03
    4.248000000000D+05-2.235174179077D-07 1.744768856192D+00 3.539025783539D-08
    9.786256395717D-01 3.062812500000D+02-1.492464269985D+00-8.293916903501D-09
    3.014411276615D-10 1.000000000000D+00 2.210000000000D+03 0.000000000000D+00
    2.800000000000D+00 0.000000000000D+00-1.117587089539D-08 8.300000000000D+01
    4.176180000000D+05 4.000000000000D+00
 7 22  5 19 21 59 44.0 3.221654333174D-04 1.136868377216D-13 0.000000000000D+00
    2.900000000000D+01-1.468750000000D+00 4.816986361103D-09 2.606831118648D+00
   -2.644956111908D-07 1.609415875282D-02 6.990507245064D-06 5.153655370712D+03
    4.247840000000D+05 4.097819328308D-08-4.062311851137D-01-2.440065145493D-07
    9.509132239812D-01 2.377187500000D+02-2.268275193898D+00-7.791038813753D-09
   -2.450102056585D-10 1.000000000000D+00 2.210000000000D+03 0.000000000000D+00
    2.000000000000D+00 0.000000000000D+00-1.117587089539D-08 2.900000000000D+01
    4.176180000000D+05 4.000000000000D+00
13 22  5 19 22  0  0.0 3.145812079310D-04 6.821210263297D-12 0.000000000000D+00
    5.800000000000D+01-8.500000000000D+00 4.434827585513D-09-1.247911809564D+00
   -5.140900611877D-07 5.909565603361D-03 8.000060915947D-06 5.153670415878D+03
    4.248000000000D+05 1.434236764908D-07-1.323796323968D+00 5.960464477539D-08
    9.682876948977D-01 2.302187500000D+02 9.196050859516D-01-7.833897741857D-09
    2.360812623036D-10 1.000000000000D+00 2.210000000000D+03 0.000000000000D+00
    2.000000000000D+00 0.000000000000D+00-1.164153218269D-08 5.800000000000D+01
    4.176180000000D+05 4.000000000000D+00
19 22  5 19 22  0  0.0 1.595118083060D-04 5.002220859751D-12 0.000000000000D+00
    2.100000000000D+01 9.387500000000D+01 4.250534194668D-09 1.532913994375D+00
    4.811212420464D-06 9.242180269212D-03 3.833323717117D-06 5.153701206207D+03
    4.248000000000D+05 1.508742570877D-07 1.789588373939D+00-8.381903171539D-08
    9.774530244190D-01 3.126875000000D+02 2.062130266654D+00-8.002476192397D-09
    2.010798043524D-10 1.000000000000D+00 2.210000000000D+03 0.000000000000D+00
    2.000000000000D+00 0.000000000000D+00-1.583248376846D-08 2.100000000000D+01
    4.176180000000D+05 4.000000000000D+00
 5 22  5 19 22  0  0.0-8.245045319200D-05-1.364242052659D-12 0.000000000000D+00
    3.800000000000D+01-1.009375000000D+02 4.396611707954D-09-3.531126545251D-01
   -5.250796675682D-06 5.973772844300D-03 8.270144462585D-06 5.153729366302D+03
    4.248000000000D+05-6.705522537231D-08-2.547607721196D+00 3.352761268616D-08
    9.609570475125D-01 2.175937500000D+02 1.023254582981D+00-8.044620805033D-09
   -3.928735076157D-12 1.000000000000D+00 2.210000000000D+03 0.000000000000D+00
    2.000000000000D+00 0.000000000000D+00-1.117587089539D-08 3.800000000000D+01
    4.176180000000D+05 4.000000000000D+00
20 22  5 19 22  0  0.0 5.146074108779D-04-1.023181539495D-12 0.000000000000D+00
    1.270000000000D+02-1.170937500000D+02 4.831272670470D-09-1.966018779796D+00
   -5.953013896942D-06 4.806087119505D-03 7.580965757370D-06 5.153584270477D+03
    4.248000000000D+05 2.607703208923D-08-2.663309098703D+00-1.695007085800D-07
    9.433161060679D-01 2.204375000000D+02-3.119424384455D+00-8.205698943155D-09
    2.607251459631D-11 1.000000000000D+00 2.210000000000D+03 0.000000000000D+00
    2.000000000000D+00 0.000000000000D+00-8.381903171539D-09 1.270000000000D+02
    4.176180000000D+05 4.000000000000D+00
 9 22  5 19 22  0  0.0-3.354437649250D-04 2.955857780762D-12 0.000000000000D+00
    2.400000000000D+01-1.831250000000D+01 4.734482924503D-09-3.026951695659D-01
   -9.462237358093D-07 2.078112564050D-03 8.402392268181D-06 5.153559976578D+03
    4.248000000000D+05 5.587935447693D-09-1.478214423850D+00 2.235174179077D-08
    9.539590325885D-01 2.138125000000D+02 1.878922132077D+00-7.973189258193D-09
    3.843017219950D-10 1.000000000000D+00 2.210000000000D+03 0.000000000000D+00
    2.000000000000D+00 0.000000000000D+00 1.396983861923D-09 2.400000000000D+01
    4.176180000000D+05 4.000000000000D+00
 8 22  5 19 22  0  0.0-6.868457421660D-05-1.477928890381D-12 0.000000000000D+00
    9.600000000000D+01 1.320625000000D+02 4.456971365033D-09-8.280340711027D-01
    6.832182407379D-06 7.447178126313D-03 4.146248102188D-06 5.153767211914D+03
    4.248000000000D+05 1.378357410431D-07 1.661398276913D+00-9.126961231232D-08
    9.634154681785D-01 2.961875000000D+02 1.679470302279D-01-8.254272395006D-09
    2.785830326729D-10 1.000000000000D+00 2.210000000000D+03 0.000000000000D+00
    2.800000000000D+00 0.000000000000D+00 5.122274160385D-09 9.600000000000D+01
    4.176180000000D+05 4.000000000000D+00
